NORAD_CAT_ID,OBJECT_NAME,OBJECT_TYPE,EPOCH,MEAN_MOTION,ECCENTRICITY,INCLINATION,RA_OF_ASC_NODE,ARG_OF_PERICENTER,MEAN_ANOMALY,BSTAR,MEAN_MOTION_DOT,MEAN_MOTION_DDOT,TLE_LINE0,TLE_LINE1,TLE_LINE2,SEMIMAJOR_AXIS,PERIOD,APOGEE,PERIGEE,DECAYED
53551.0,STARLINK-4514,PAYLOAD,2024-05-28 03:17:48,15.08840611,0.0001284,53.2174,104.5636,83.6909,276.4229,7.2522e-05,8.67e-06,0.0,0 STARLINK-4514,1 53551U 22101AA  24149.13736673  .00000867  00000-0  72522-4 0  9994,2 53551  53.2174 104.5636 0001284  83.6909 276.4229 15.08840611 98090,6917.879,95.438,540.632,538.855,0.0
53551.0,STARLINK-4514,PAYLOAD,2024-05-28 20:47:02,15.08842148,0.0001318,53.2175,101.2929,79.2454,280.8687,7.9849e-05,9.83e-06,0.0,0 STARLINK-4514,1 53551U 22101AA  24149.86600516  .00000983  00000-0  79849-4 0  9998,2 53551  53.2175 101.2929 0001318  79.2454 280.8687 15.08842148 98863,6917.874,95.437,540.651,538.827,0.0
53551.0,STARLINK-4514,PAYLOAD,2024-05-29 03:08:35,15.08842745,0.0001328,53.2176,100.1035,79.0795,281.0346,7.8087e-05,9.55e-06,0.0,0 STARLINK-4514,1 53551U 22101AA  24150.13096440  .00000955  00000-0  78087-4 0  9997,2 53551  53.2176 100.1035 0001328  79.0795 281.0346 15.08842745 98900,6917.872,95.437,540.656,538.818,0.0
53551.0,STARLINK-4514,PAYLOAD,2024-05-29 20:37:50,15.08841105,0.0001238,53.2167,96.8337,80.1441,279.9691,5.0475e-05,5.16e-06,0.0,0 STARLINK-4514,1 53551U 22101AA  24150.85960698  .00000516  00000-0  50475-4 0  9995,2 53551  53.2167  96.8337 0001238  80.1441 279.9691 15.08841105 98354,6917.877,95.437,540.598,538.886,0.0
53551.0,STARLINK-4514,PAYLOAD,2024-05-30 06:10:08,15.08838929,0.0001272,53.2175,95.0482,97.8638,262.2499,2.5482e-05,1.18e-06,0.0,0 STARLINK-4514,1 53551U 22101AA  24151.25704780  .00000118  00000-0  25482-4 0  9996,2 53551  53.2175  95.0482 0001272  97.8638 262.2499 15.08838929 99077,6917.884,95.438,540.629,538.869,0.0
53551.0,STARLINK-4514,PAYLOAD,2024-05-31 01:14:46,15.08841723,0.000128,53.2176,91.48,95.7702,264.3436,6.1341e-05,6.89e-06,0.0,0 STARLINK-4514,1 53551U 22101AA  24152.05192560  .00000689  00000-0  61341-4 0  9999,2 53551  53.2176  91.4800 0001280  95.7702 264.3436 15.08841723 98530,6917.875,95.437,540.626,538.855,0.0
53551.0,STARLINK-4514,PAYLOAD,2024-05-31 06:00:55,15.08842304,0.0001302,53.2179,90.5872,100.0674,260.0465,9.1496e-05,1.169e-05,0.0,0 STARLINK-4514,1 53551U 22101AA  24152.25064423  .00001169  00000-0  91496-4 0  9995,2 53551  53.2179  90.5872 0001302 100.0674 260.0465 15.08842304 99223,6917.873,95.437,540.639,538.838,0.0
53551.0,STARLINK-4514,PAYLOAD,2024-06-01 02:40:57,15.08833486,0.0001271,53.2174,86.7236,88.6503,271.4634,3.5902e-05,2.83e-06,0.0,0 STARLINK-4514,1 53551U 22101AA  24153.11177154  .00000283  00000-0  35902-4 0  9993,2 53551  53.2174  86.7236 0001271  88.6503 271.4634 15.08833486 98691,6917.9,95.438,540.645,538.886,0.0
53551.0,STARLINK-4514,PAYLOAD,2024-06-01 12:13:15,15.08844148,0.000148,53.2191,84.9404,94.3873,265.7288,0.0001122,1.498e-05,0.0,0 STARLINK-4514,1 53551U 22101AA  24153.50920365  .00001498  00000-0  11220-3 0  9991,2 53551  53.2191  84.9404 0001480  94.3873 265.7288 15.08844148 98758,6917.868,95.437,540.757,538.709,0.0
53551.0,STARLINK-4514,PAYLOAD,2024-06-02 02:31:44,15.08832292,0.0001396,53.2186,82.2642,98.0079,262.1072,-4.8226e-05,-1.055e-05,0.0,0 STARLINK-4514,1 53551U 22101AA  24154.10537921 -.00001055  00000-0 -48226-4 0  9998,2 53551  53.2186  82.2642 0001396  98.0079 262.1072 15.08832292 98841,6917.904,95.438,540.735,538.803,0.0
53551.0,STARLINK-4514,PAYLOAD,2024-06-02 12:04:02,15.08842172,0.0001533,53.2202,80.48,92.9924,267.1244,2.8595e-05,1.67e-06,0.0,0 STARLINK-4514,1 53551U 22101AA  24154.50281211  .00000167  00000-0  28595-4 0  9998,2 53551  53.2202  80.4800 0001533  92.9924 267.1244 15.08842172 98902,6917.874,95.437,540.799,538.678,0.0
53551.0,STARLINK-4514,PAYLOAD,2024-06-02 18:25:35,15.08841263,0.0001934,53.2195,79.2909,87.1315,272.9899,-2.778e-06,-3.32e-06,0.0,0 STARLINK-4514,1 53551U 22101AA  24154.76777493 -.00000332  00000-0 -27780-5 0  9990,2 53551  53.2195  79.2909 0001934  87.1315 272.9899 15.08841263 99602,6917.877,95.437,541.079,538.404,0.0
53551.0,STARLINK-4514,PAYLOAD,2024-06-03 11:54:48,15.08861637,0.000146,53.2186,76.0193,82.608,277.5078,0.00021691,3.168e-05,0.0,0 STARLINK-4514,1 53551U 22101AA  24155.49639567  .00003168  00000-0  21691-3 0  9991,2 53551  53.2186  76.0193 0001460  82.6080 277.5078 15.08861637 99051,6917.814,95.436,540.689,538.669,0.0
53551.0,STARLINK-4514,PAYLOAD,2024-06-03 18:16:22,15.08838362,0.0001863,53.2179,74.8282,83.1064,277.014,-3.8992e-05,-9.09e-06,0.0,0 STARLINK-4514,1 53551U 22101AA  24155.76137689 -.00000909  00000-0 -38992-4 0  9994,2 53551  53.2179  74.8282 0001863  83.1064 277.0140 15.08838362 99091,6917.885,95.438,541.039,538.462,0.0
53551.0,STARLINK-4514,PAYLOAD,2024-06-04 03:48:40,15.08850322,0.0001383,53.2188,73.0446,86.0934,274.0216,0.00018784,2.704e-05,0.0,0 STARLINK-4514,1 53551U 22101AA  24156.15880549  .00002704  00000-0  18784-3 0  9997,2 53551  53.2188  73.0446 0001383  86.0934 274.0216 15.08850322 99157,6917.849,95.437,540.671,538.757,0.0
53551.0,STARLINK-4514,PAYLOAD,2024-06-04 11:45:36,15.08856364,0.0001575,53.219,71.5595,87.5935,272.5237,0.00028076,4.185e-05,0.0,0 STARLINK-4514,1 53551U 22101AA  24156.49000223  .00004185  00000-0  28076-3 0  9997,2 53551  53.2190  71.5595 0001575  87.5935 272.5237 15.08856364 99864,6917.83,95.437,540.785,538.606,0.0
53551.0,STARLINK-4514,PAYLOAD,2024-06-04 22:53:18,15.08837646,0.0001694,53.2177,69.4764,92.1215,267.9971,4.9438e-06,-2.09e-06,0.0,0 STARLINK-4514,1 53551U 22101AA  24156.95369181 -.00000209  00000-0  49438-5 0  9990,2 53551  53.2177  69.4764 0001694  92.1215 267.9971 15.08837646 99931,6917.888,95.438,540.924,538.581,0.0
53551.0,STARLINK-4514,PAYLOAD,2024-06-05 03:39:27,15.08845425,0.0001538,53.2168,68.5807,110.6887,249.427,-1.2651e-05,-4.89e-06,0.0,0 STARLINK-4514,1 53551U 22101AA  24157.15240659 -.00000489  00000-0 -12651-4 0  9998,2 53551  53.2168  68.5807 0001538 110.6887 249.4270 15.08845425 99309,6917.864,95.437,540.793,538.665,0.0
53551.0,STARLINK-4514,PAYLOAD,2024-06-05 11:36:23,15.08856743,0.0001503,53.2179,67.0947,99.4842,260.632,0.00012333,1.676e-05,0.0,0 STARLINK-4514,1 53551U 22101AA  24157.48359976  .00001676  00000-0  12333-3 0  9990,2 53551  53.2179  67.0947 0001503  99.4842 260.6320 15.08856743 99358,6917.829,95.436,540.734,538.654,0.0
53551.0,STARLINK-4514,PAYLOAD,2024-06-05 17:57:56,15.08850003,0.0002634,53.2164,65.9078,86.5727,273.5566,0.00032551,4.897e-05,0.0,0 STARLINK-4514,1 53551U 22101AA  24157.74856800  .00004897  00000-0  32551-3 0  9999,2 53551  53.2164  65.9078 0002634  86.5727 273.5566 15.08850003 99391,6917.85,95.437,541.537,537.893,0.0
53551.0,STARLINK-4514,PAYLOAD,2024-06-06 03:30:15,15.08839596,0.0001703,53.2177,64.1232,96.8557,263.2628,5.7331e-05,6.24e-06,0.0,0 STARLINK-4514,1 53551U 22101AA  24158.14600917  .00000624  00000-0  57331-4 0  9998,2 53551  53.2177  64.1232 0001703  96.8557 263.2628 15.08839596 99455,6917.882,95.438,540.925,538.569,0.0
53551.0,STARLINK-4514,PAYLOAD,2024-06-07 17:39:30,15.08842546,0.0001701,53.2144,56.9863,97.5331,262.5855,0.00028236,4.209e-05,0.0,0 STARLINK-4514,1 53551U 22101AA  24159.73577441  .00004209  00000-0  28236-3 0  9993,2 53551  53.2144  56.9863 0001701  97.5331 262.5855 15.08842546 99693,6917.873,95.437,540.914,538.561,0.0
53551.0,STARLINK-4514,PAYLOAD,2024-06-07 22:25:40,15.08837439,0.0001385,53.2172,56.0935,98.7014,261.4135,0.0002127,3.099e-05,0.0,0 STARLINK-4514,1 53551U 22101AA  24159.93449640  .00003099  00000-0  21270-3 0  9991,2 53551  53.2172  56.0935 0001385  98.7014 261.4135 15.08837439100387,6917.888,95.438,540.711,538.795,0.0
53551.0,STARLINK-4514,PAYLOAD,2024-06-08 09:33:21,15.08853311,0.000136,53.2183,54.0152,97.6999,262.4148,0.00029918,4.478e-05,0.0,0 STARLINK-4514,1 53551U 22101AA  24160.39816840  .00004478  00000-0  29918-3 0  9992,2 53551  53.2183  54.0152 0001360  97.6999 262.4148 15.08853311100451,6917.84,95.437,540.646,538.764,0.0
53551.0,STARLINK-4514,PAYLOAD,2024-06-08 17:30:18,15.08839859,0.0002379,53.2167,52.5273,74.3594,285.766,0.00018242,2.616e-05,0.0,0 STARLINK-4514,1 53551U 22101AA  24160.72937738  .00002616  00000-0  18242-3 0  9999,2 53551  53.2167  52.5273 0002379  74.3594 285.7660 15.08839859 99842,6917.881,95.438,541.392,538.1,0.0
53551.0,STARLINK-4514,PAYLOAD,2024-06-08 22:16:28,15.08824551,0.0001463,53.2181,51.636,78.429,281.6866,-5.504e-05,-1.163e-05,0.0,0 STARLINK-4514,1 53551U 22101AA  24160.92810445 -.00001163  00000-0 -55040-4 0  9992,2 53551  53.2181  51.6360 0001463  78.4290 281.6866 15.08824551100531,6917.928,95.439,540.805,538.781,0.0
53551.0,STARLINK-4514,PAYLOAD,2024-06-08 23:51:51,15.08828183,0.0001133,53.2198,51.342,76.202,283.9098,6.8012e-05,7.94e-06,0.0,0 STARLINK-4514,1 53551U 22101AA  24160.99434223  .00000794  00000-0  68012-4 0  9995,2 53551  53.2198  51.3420 0001133  76.2020 283.9098 15.08828183 99886,6917.917,95.438,540.565,538.998,0.0
53551.0,STARLINK-4514,PAYLOAD,2024-06-09 22:07:15,15.0883509,0.0001423,53.2186,47.179,90.8396,269.276,0.00010179,1.332e-05,0.0,0 STARLINK-4514,1 53551U 22101AA  24161.92170444  .00001332  00000-0  10179-3 0  9990,2 53551  53.2186  47.1790 0001423  90.8396 269.2760 15.08835090100685,6917.895,95.438,540.745,538.776,0.0
53551.0,STARLINK-4514,PAYLOAD,2024-06-10 09:14:56,15.08846557,0.0001258,53.2171,45.0942,78.8697,281.2436,0.00030074,4.502e-05,0.0,0 STARLINK-4514,1 53551U 22101AA  24162.38538168  .00004502  00000-0  30074-3 0  9990,2 53551  53.2171  45.0942 0001258  78.8697 281.2436 15.08846557100090,6917.86,95.437,540.596,538.855,0.0
53551.0,STARLINK-4514,PAYLOAD,2024-06-10 20:22:39,15.08840019,0.0002024,53.2183,43.0117,73.692,286.4294,0.00029409,4.395e-05,0.0,0 STARLINK-4514,1 53551U 22101AA  24162.84906931  .00004395  00000-0  29409-3 0  9998,2 53551  53.2183  43.0117 0002024  73.6920 286.4294 15.08840019100163,6917.88,95.438,541.146,538.345,0.0
